OBJECT_NAME,OBJECT_ID,EPOCH,MEAN_MOTION,ECCENTRICITY,INCLINATION,RA_OF_ASC_NODE,ARG_OF_PERICENTER,MEAN_ANOMALY,EPHEMERIS_TYPE,CLASSIFICATION_TYPE,NORAD_CAT_ID,ELEMENT_SET_NO,REV_AT_EPOCH,BSTAR,MEAN_MOTION_DOT,MEAN_MOTION_DDOT
STARLINK-5209,2022-136L,2026-07-05T03:49:15.525408,15.08828929,.00014079,53.1596,141.1860,87.9291,272.1861,0,U,54061,999,20507,-.16743013E-4,-.554E-5,0
STARLINK-5170,2022-136M,2026-07-05T09:26:28.734432,15.08824051,.00012457,53.1600,175.4902,84.6623,275.4510,0,U,54062,999,20461,-.36211511E-4,-.864E-5,0
STARLINK-5172,2022-136P,2026-07-05T05:37:42.502080,15.29361309,.00013288,53.1607,129.6044,92.6315,267.4837,0,U,54064,999,20524,.11158798E-4,-.34E-6,0
STARLINK-5187,2022-136Q,2026-07-05T05:59:46.908672,15.08839597,.00011366,53.1596,176.0194,82.3903,277.7218,0,U,54065,999,20459,.34813786E-4,.266E-5,0
STARLINK-5151,2022-136R,2026-07-05T09:49:59.331936,15.08016647,.00011362,53.1942,175.7646,97.8493,262.2627,0,U,54066,999,20461,-.7956943E-5,-.409E-5,0
STARLINK-5174,2022-136S,2026-07-05T08:59:56.479200,15.08840683,.00010969,53.1592,175.3792,78.0238,282.0876,0,U,54067,999,20461,.10070871E-3,.1315E-4,0
STARLINK-5222,2022-136T,2026-07-05T05:54:28.719936,15.08836451,.00011428,53.1593,175.9974,78.8200,281.2920,0,U,54068,999,20459,.46621099E-4,.454E-5,0
STARLINK-5181,2022-136V,2026-07-05T05:38:33.693216,15.08838897,.00011149,53.1592,175.9292,71.7015,288.4098,0,U,54070,999,20459,.73496963E-4,.882E-5,0
STARLINK-5168,2022-136W,2026-07-05T05:33:15.080256,15.08840578,.00011188,53.1591,175.9062,86.1203,273.9917,0,U,54071,999,20459,.11762728E-3,.1585E-4,0
STARLINK-5146,2022-136Y,2026-07-05T05:31:15.656448,15.08842893,.00012192,53.1591,170.9165,81.4853,278.6276,0,U,54073,999,20466,.88227735E-4,.1117E-4,0
STARLINK-5192,2022-136Z,2026-07-05T05:27:57.003840,15.08838890,.0001299,53.1593,175.8825,80.4148,279.6990,0,U,54074,999,20459,.98902258E-4,.1286E-4,0
STARLINK-5212,2022-136AA,2026-07-05T14:00:03.000384,15.31642531,.00016826,53.1600,167.0937,67.9694,122.0404,0,U,54075,999,585,.12148593E-2,.37455E-3,0
STARLINK-5201,2022-136AB,2026-07-05T06:48:55.223136,15.08835761,.00011232,53.1595,176.2162,86.1816,273.9304,0,U,54076,999,20459,.82110508E-4,.1019E-4,0
STARLINK-5171,2022-136AC,2026-07-05T02:35:17.446848,15.08839740,.00012819,53.1596,152.4423,87.8192,272.2946,0,U,54077,999,20491,.92984485E-4,.1192E-4,0
STARLINK-5175,2022-136AE,2026-07-05T05:13:28.888608,15.08837267,.0001081,53.1587,166.5367,85.3718,274.7396,0,U,54079,999,20472,.30866635E-4,.203E-5,0
STARLINK-5210,2022-136AH,2026-07-05T08:18:57.169728,15.08834900,.00015617,53.1594,165.9173,89.7577,270.3593,0,U,54082,999,20474,.64096566E-4,.732E-5,0
STARLINK-5178,2022-136AJ,2026-07-05T08:03:01.948608,15.08836985,.00011834,53.1587,165.8486,84.8085,275.3042,0,U,54083,999,20474,.19049657E-4,.15E-6,0
STARLINK-5183,2022-136AK,2026-07-05T05:02:53.323296,15.08827876,.00013006,53.1594,166.4899,88.3760,271.7380,0,U,54084,999,20472,.10497702E-3,.1383E-4,0
STARLINK-5166,2022-136AL,2026-07-05T06:23:43.248192,15.08826855,.00016818,53.1601,166.1294,79.0882,281.0298,0,U,54085,999,20473,.49537988E-4,.5E-5,0
STARLINK-5211,2022-136AM,2026-07-05T03:16:13.056672,15.08831760,.00013449,53.1595,151.7799,86.6527,273.4618,0,U,54086,999,20492,.82338806E-4,.1022E-4,0
STARLINK-5184,2022-136AN,2026-07-05T05:29:16.675872,15.08834187,.00013513,53.1599,165.9025,88.7473,271.3673,0,U,54087,999,20473,.96613324E-4,.125E-4,0
STARLINK-5153,2022-136AP,2026-07-05T08:08:20.725728,15.08826091,.00014102,53.1588,165.8713,89.5078,270.6075,0,U,54088,999,20474,-.20961997E-4,-.621E-5,0
STARLINK-5143,2022-136AQ,2026-07-05T06:01:07.053312,15.08837936,.00009257,53.1597,166.0365,77.5677,282.5418,0,U,54089,999,20473,.55850404E-4,.601E-5,0
STARLINK-5177,2022-136AR,2026-07-05T09:17:13.121952,15.08828681,.00011516,53.1595,165.4592,77.7205,282.3916,0,U,54090,999,20475,.58041924E-4,.636E-5,0
STARLINK-5221,2022-136AS,2026-07-05T03:48:35.049600,15.08837404,.00012193,53.1596,166.1745,85.7849,274.3282,0,U,54091,999,20472,.32689131E-4,.232E-5,0
STARLINK-5190,2022-136AT,2026-07-05T14:00:03.000384,15.89102569,.00056798,53.1692,307.3504,331.2702,128.1702,0,U,54092,999,591,.65322669E-3,.195239E-2,0
STARLINK-5213,2022-136AU,2026-07-05T08:55:57.713664,15.08836973,.00010828,53.1596,165.3675,94.1884,265.9231,0,U,54093,999,20475,-.18866917E-3,-.3289E-4,0
STARLINK-5193,2022-136AW,2026-07-05T05:34:34.710816,15.08839966,.00013591,53.1595,165.9171,88.6031,271.5116,0,U,54095,999,20473,.67661636E-4,.789E-5,0
STARLINK-5188,2022-136AX,2026-07-05T05:50:30.204960,15.08837085,.00010455,53.1596,165.9856,87.8171,272.2940,0,U,54096,999,20473,.52193483E-4,.543E-5,0
STARLINK-5197,2022-136AY,2026-07-05T06:01:47.116992,15.08837475,.0001366,53.1601,141.0902,82.4697,277.6450,0,U,54097,999,20508,.1039012E-3,.1366E-4,0
