STARLINK-5209           
1 54061U 22136L   26186.15920747 -.00000554  00000+0 -16743-4 0  9998
2 54061  53.1596 141.1860 0001407  87.9291 272.1861 15.08828929205079
STARLINK-5170           
1 54062U 22136M   26186.39338813 -.00000864  00000+0 -36212-4 0  9999
2 54062  53.1600 175.4902 0001245  84.6623 275.4510 15.08824051204614
STARLINK-5172           
1 54064U 22136P   26186.23451970 -.00000034  00000+0  11159-4 0  9995
2 54064  53.1607 129.6044 0001328  92.6315 267.4837 15.29361309205248
STARLINK-5187           
1 54065U 22136Q   26186.24984848  .00000266  00000+0  34814-4 0  9991
2 54065  53.1596 176.0194 0001136  82.3903 277.7218 15.08839597204594
STARLINK-5151           
1 54066U 22136R   26186.40971449 -.00000409  00000+0 -79569-5 0  9991
2 54066  53.1942 175.7646 0001136  97.8493 262.2627 15.08016647204612
STARLINK-5174           
1 54067U 22136S   26186.37495925  .00001315  00000+0  10071-3 0  9994
2 54067  53.1592 175.3792 0001096  78.0238 282.0876 15.08840683204616
STARLINK-5222           
1 54068U 22136T   26186.24616574  .00000454  00000+0  46621-4 0  9990
2 54068  53.1593 175.9974 0001142  78.8200 281.2920 15.08836451204591
STARLINK-5181           
1 54070U 22136V   26186.23511219  .00000882  00000+0  73497-4 0  9998
2 54070  53.1592 175.9292 0001114  71.7015 288.4098 15.08838897204592
STARLINK-5168           
1 54071U 22136W   26186.23142454  .00001585  00000+0  11763-3 0  9998
2 54071  53.1591 175.9062 0001118  86.1203 273.9917 15.08840578204598
STARLINK-5146           
1 54073U 22136Y   26186.23004232  .00001117  00000+0  88228-4 0  9993
2 54073  53.1591 170.9165 0001219  81.4853 278.6276 15.08842893204660
STARLINK-5192           
1 54074U 22136Z   26186.22774310  .00001286  00000+0  98902-4 0  9991
2 54074  53.1593 175.8825 0001299  80.4148 279.6990 15.08838890204592
STARLINK-5212           
1 54075U 22136AA  26186.58336806  .00037455  00000+0  12149-2 0  9999
2 54075  53.1600 167.0937 0001682  67.9694 122.0404 15.31642531  5851
STARLINK-5201           
1 54076U 22136AB  26186.28397249  .00001019  00000+0  82111-4 0  9990
2 54076  53.1595 176.2162 0001123  86.1816 273.9304 15.08835761204596
STARLINK-5171           
1 54077U 22136AC  26186.10784082  .00001192  00000+0  92984-4 0  9998
2 54077  53.1596 152.4423 0001281  87.8192 272.2946 15.08839740204915
STARLINK-5175           
1 54079U 22136AE  26186.21769547  .00000203  00000+0  30867-4 0  9995
2 54079  53.1587 166.5367 0001081  85.3718 274.7396 15.08837267204722
STARLINK-5210           
1 54082U 22136AH  26186.34649502  .00000732  00000+0  64097-4 0  9990
2 54082  53.1594 165.9173 0001561  89.7577 270.3593 15.08834900204740
STARLINK-5178           
1 54083U 22136AJ  26186.33543922  .00000015  00000+0  19050-4 0  9992
2 54083  53.1587 165.8486 0001183  84.8085 275.3042 15.08836985204748
STARLINK-5183           
1 54084U 22136AK  26186.21033939  .00001383  00000+0  10498-3 0  9997
2 54084  53.1594 166.4899 0001300  88.3760 271.7380 15.08827876204724
STARLINK-5166           
1 54085U 22136AL  26186.26647278  .00000500  00000+0  49538-4 0  9998
2 54085  53.1601 166.1294 0001681  79.0882 281.0298 15.08826855204733
STARLINK-5211           
1 54086U 22136AM  26186.13626223  .00001022  00000+0  82339-4 0  9998
2 54086  53.1595 151.7799 0001344  86.6527 273.4618 15.08831760204925
STARLINK-5184           
1 54087U 22136AN  26186.22866523  .00001250  00000+0  96613-4 0  9991
2 54087  53.1599 165.9025 0001351  88.7473 271.3673 15.08834187204733
STARLINK-5153           
1 54088U 22136AP  26186.33912877 -.00000621  00000+0 -20962-4 0  9995
2 54088  53.1588 165.8713 0001410  89.5078 270.6075 15.08826091204745
STARLINK-5143           
1 54089U 22136AQ  26186.25077608  .00000601  00000+0  55850-4 0  9991
2 54089  53.1597 166.0365 0000925  77.5677 282.5418 15.08837936204736
STARLINK-5177           
1 54090U 22136AR  26186.38695743  .00000636  00000+0  58042-4 0  9997
2 54090  53.1595 165.4592 0001151  77.7205 282.3916 15.08828681204752
STARLINK-5221           
1 54091U 22136AS  26186.15873900  .00000232  00000+0  32689-4 0  9997
2 54091  53.1596 166.1745 0001219  85.7849 274.3282 15.08837404204727
STARLINK-5190           
1 54092U 22136AT  26186.58336806  .00195239  00000+0  65323-3 0  9996
2 54092  53.1692 307.3504 0005679 331.2702 128.1702 15.89102569  5917
STARLINK-5213           
1 54093U 22136AU  26186.37219576 -.00003289  00000+0 -18867-3 0  9994
2 54093  53.1596 165.3675 0001082  94.1884 265.9231 15.08836973204756
STARLINK-5193           
1 54095U 22136AW  26186.23234619  .00000789  00000+0  67662-4 0  9994
2 54095  53.1595 165.9171 0001359  88.6031 271.5116 15.08839966204731
STARLINK-5188           
1 54096U 22136AX  26186.24340515  .00000543  00000+0  52193-4 0  9990
2 54096  53.1596 165.9856 0001045  87.8171 272.2940 15.08837085204734
STARLINK-5197           
1 54097U 22136AY  26186.25123978  .00001366  00000+0  10390-3 0  9990
2 54097  53.1601 141.0902 0001366  82.4697 277.6450 15.08837475205086
